{
  "type": "FeatureCollection",
  "features": [
    {
      "type": "Feature",
      "properties": {
        "norad_id": 43823,
        "name": "GEO-KOMPSAT-2A",
        "group": "weather",
        "lat": 0.016197238367456582,
        "lon": 173.51125147034134,
        "alt_km": 35786.94297640821,
        "timestamp": "2025-12-25T20:42:38.331325+00:00",
        "meta_object_name": "GEO-KOMPSAT-2A",
        "meta_object_id": "2018-100A",
        "meta_epoch": "2025-12-24T05:33:51.801120",
        "meta_mean_motion": 1.00269294,
        "meta_eccentricity": 3.001e-05,
        "meta_inclination": 0.0444,
        "meta_ra_of_asc_node": 175.8502,
        "meta_arg_of_pericenter": 270.743,
        "meta_mean_anomaly": 218.1364,
        "meta_ephemeris_type": 0,
        "meta_classification_type": "U",
        "meta_norad_cat_id": 43823,
        "meta_element_set_no": 999,
        "meta_rev_at_epoch": 2587,
        "meta_bstar": 0,
        "meta_mean_motion_dot": -3.23e-06,
        "meta_mean_motion_ddot": 0,
        "tle_line1": "1 43823U 18100A   25358.23184955 -.00000323  00000+0  00000+0 0  9997",
        "tle_line2": "2 43823   0.0444 175.8502 0000300 270.7430 218.1364  1.00269294 25878"
      },
      "geometry": {
        "type": "Point",
        "coordinates": [
          173.51125147034134,
          0.016197238367456582
        ]
      }
    },
    {
      "type": "Feature",
      "properties": {
        "norad_id": 44387,
        "name": "METEOR-M2 2",
        "group": "weather",
        "lat": -53.280967077187206,
        "lon": -8.121982829119814,
        "alt_km": 819.0962302662829,
        "timestamp": "2025-12-25T20:42:38.331357+00:00",
        "meta_object_name": "METEOR-M2 2",
        "meta_object_id": "2019-038A",
        "meta_epoch": "2025-12-25T05:47:27.515616",
        "meta_mean_motion": 14.24296473,
        "meta_eccentricity": 0.00017972,
        "meta_inclination": 98.8987,
        "meta_ra_of_asc_node": 339.1236,
        "meta_arg_of_pericenter": 124.1589,
        "meta_mean_anomaly": 235.976,
        "meta_ephemeris_type": 0,
        "meta_classification_type": "U",
        "meta_norad_cat_id": 44387,
        "meta_element_set_no": 999,
        "meta_rev_at_epoch": 33653,
        "meta_bstar": 9.5231841e-05,
        "meta_mean_motion_dot": 1.74e-06,
        "meta_mean_motion_ddot": 0,
        "tle_line1": "1 44387U 19038A   25359.24129069  .00000174  00000+0  95232-4 0  9990",
        "tle_line2": "2 44387  98.8987 339.1236 0001797 124.1589 235.9760 14.24296473336532"
      },
      "geometry": {
        "type": "Point",
        "coordinates": [
          -8.121982829119814,
          -53.280967077187206
        ]
      }
    },
    {
      "type": "Feature",
      "properties": {
        "norad_id": 47719,
        "name": "ARKTIKA-M 1",
        "group": "weather",
        "lat": 58.31668194151131,
        "lon": -152.7149563750073,
        "alt_km": 33973.448742198496,
        "timestamp": "2025-12-25T20:42:38.331372+00:00",
        "meta_object_name": "ARKTIKA-M 1",
        "meta_object_id": "2021-016A",
        "meta_epoch": "2025-12-25T00:52:45.922368",
        "meta_mean_motion": 2.00630507,
        "meta_eccentricity": 0.7210339,
        "meta_inclination": 63.177,
        "meta_ra_of_asc_node": 82.3163,
        "meta_arg_of_pericenter": 269.1694,
        "meta_mean_anomaly": 15.5374,
        "meta_ephemeris_type": 0,
        "meta_classification_type": "U",
        "meta_norad_cat_id": 47719,
        "meta_element_set_no": 999,
        "meta_rev_at_epoch": 3529,
        "meta_bstar": 0,
        "meta_mean_motion_dot": -4.3e-07,
        "meta_mean_motion_ddot": 0,
        "tle_line1": "1 47719U 21016A   25359.03664262 -.00000043  00000+0  00000+0 0  9997",
        "tle_line2": "2 47719  63.1770  82.3163 7210339 269.1694  15.5374  2.00630507 35296"
      },
      "geometry": {
        "type": "Point",
        "coordinates": [
          -152.7149563750073,
          58.31668194151131
        ]
      }
    },
    {
      "type": "Feature",
      "properties": {
        "norad_id": 49008,
        "name": "FENGYUN 3E",
        "group": "weather",
        "lat": 55.65719946848874,
        "lon": -12.795154689910392,
        "alt_km": 820.8565420402765,
        "timestamp": "2025-12-25T20:42:38.331384+00:00",
        "meta_object_name": "FENGYUN 3E",
        "meta_object_id": "2021-062A",
        "meta_epoch": "2025-12-25T06:54:53.407296",
        "meta_mean_motion": 14.19881606,
        "meta_eccentricity": 9.359e-05,
        "meta_inclination": 98.7476,
        "meta_ra_of_asc_node": 359.6603,
        "meta_arg_of_pericenter": 190.1199,
        "meta_mean_anomaly": 169.9958,
        "meta_ephemeris_type": 0,
        "meta_classification_type": "U",
        "meta_norad_cat_id": 49008,
        "meta_element_set_no": 999,
        "meta_rev_at_epoch": 23190,
        "meta_bstar": 9.8479822e-05,
        "meta_mean_motion_dot": 1.65e-06,
        "meta_mean_motion_ddot": 0,
        "tle_line1": "1 49008U 21062A   25359.28811814  .00000165  00000+0  98480-4 0  9993",
        "tle_line2": "2 49008  98.7476 359.6603 0000935 190.1199 169.9958 14.19881606231909"
      },
      "geometry": {
        "type": "Point",
        "coordinates": [
          -12.795154689910392,
          55.65719946848874
        ]
      }
    },
    {
      "type": "Feature",
      "properties": {
        "norad_id": 51850,
        "name": "GOES 18",
        "group": "weather",
        "lat": 0.000960469383823679,
        "lon": -91.73758390164473,
        "alt_km": 35785.03710392459,
        "timestamp": "2025-12-25T20:42:38.331400+00:00",
        "meta_object_name": "GOES 18",
        "meta_object_id": "2022-021A",
        "meta_epoch": "2025-12-25T02:08:26.134368",
        "meta_mean_motion": 1.00271254,
        "meta_eccentricity": 4.057e-05,
        "meta_inclination": 0.0027,
        "meta_ra_of_asc_node": 276.3002,
        "meta_arg_of_pericenter": 41.3938,
        "meta_mean_anomaly": 31.2662,
        "meta_ephemeris_type": 0,
        "meta_classification_type": "U",
        "meta_norad_cat_id": 51850,
        "meta_element_set_no": 999,
        "meta_rev_at_epoch": 484,
        "meta_bstar": 0,
        "meta_mean_motion_dot": 1.18e-06,
        "meta_mean_motion_ddot": 0,
        "tle_line1": "1 51850U 22021A   25359.08919137  .00000118  00000+0  00000+0 0  9996",
        "tle_line2": "2 51850   0.0027 276.3002 0000405  41.3938  31.2662  1.00271254  4845"
      },
      "geometry": {
        "type": "Point",
        "coordinates": [
          -91.73758390164473,
          0.000960469383823679
        ]
      }
    },
    {
      "type": "Feature",
      "properties": {
        "norad_id": 54234,
        "name": "NOAA 21 (JPSS-2)",
        "group": "weather",
        "lat": 45.62971864769578,
        "lon": -73.04735250858215,
        "alt_km": 821.9944909181831,
        "timestamp": "2025-12-25T20:42:38.331415+00:00",
        "meta_object_name": "NOAA 21 (JPSS-2)",
        "meta_object_id": "2022-150A",
        "meta_epoch": "2025-12-25T05:16:06.032928",
        "meta_mean_motion": 14.19527485,
        "meta_eccentricity": 0.00016466,
        "meta_inclination": 98.7478,
        "meta_ra_of_asc_node": 295.373,
        "meta_arg_of_pericenter": 12.4295,
        "meta_mean_anomaly": 347.6921,
        "meta_ephemeris_type": 0,
        "meta_classification_type": "U",
        "meta_norad_cat_id": 54234,
        "meta_element_set_no": 999,
        "meta_rev_at_epoch": 16186,
        "meta_bstar": 6.9531847e-05,
        "meta_mean_motion_dot": 1.03e-06,
        "meta_mean_motion_ddot": 0,
        "tle_line1": "1 54234U 22150A   25359.21951427  .00000103  00000+0  69532-4 0  9995",
        "tle_line2": "2 54234  98.7478 295.3730 0001646  12.4295 347.6921 14.19527485161862"
      },
      "geometry": {
        "type": "Point",
        "coordinates": [
          -73.04735250858215,
          45.62971864769578
        ]
      }
    },
    {
      "type": "Feature",
      "properties": {
        "norad_id": 54743,
        "name": "METEOSAT-12 (MTG-I1)",
        "group": "weather",
        "lat": 0.24210226018064654,
        "lon": 44.95723494063842,
        "alt_km": 35791.42980638392,
        "timestamp": "2025-12-25T20:42:38.331465+00:00",
        "meta_object_name": "METEOSAT-12 (MTG-I1)",
        "meta_object_id": "2022-170C",
        "meta_epoch": "2025-12-25T02:23:21.556320",
        "meta_mean_motion": 1.00270884,
        "meta_eccentricity": 0.00016408,
        "meta_inclination": 0.6994,
        "meta_ra_of_asc_node": 25.6488,
        "meta_arg_of_pericenter": 241.2178,
        "meta_mean_anomaly": 222.5163,
        "meta_ephemeris_type": 0,
        "meta_classification_type": "U",
        "meta_norad_cat_id": 54743,
        "meta_element_set_no": 999,
        "meta_rev_at_epoch": 1123,
        "meta_bstar": 0,
        "meta_mean_motion_dot": 1.3e-07,
        "meta_mean_motion_ddot": 0,
        "tle_line1": "1 54743U 22170C   25359.09955505  .00000013  00000+0  00000+0 0  9999",
        "tle_line2": "2 54743   0.6994  25.6488 0001640 241.2178 222.5163  1.00270884 11230"
      },
      "geometry": {
        "type": "Point",
        "coordinates": [
          44.95723494063842,
          0.24210226018064654
        ]
      }
    }
  ]
}